{
    "links": {
        "self": "http://www.neowsapp.com/rest/v1/neo/3976532?api_key=iIulBulltgU6a56xZRHN4H3l9WmuAYTsLGpBGhQ2"
    },
    "id": "3976532",
    "neo_reference_id": "3976532",
    "name": "(2020 AN1)",
    "designation": "2020 AN1",
    "nasa_jpl_url": "http://ssd.jpl.nasa.gov/sbdb.cgi?sstr=3976532",
    "absolute_magnitude_h": 25.9,
    "estimated_diameter": {
        "kilometers": {
            "estimated_diameter_min": 0.0175612318,
            "estimated_diameter_max": 0.0392681082
        },
        "meters": {
            "estimated_diameter_min": 17.561231848,
            "estimated_diameter_max": 39.2681081809
        },
        "miles": {
            "estimated_diameter_min": 0.0109120402,
            "estimated_diameter_max": 0.0244000636
        },
        "feet": {
            "estimated_diameter_min": 57.6155918963,
            "estimated_diameter_max": 128.8323800441
        }
    },
    "is_potentially_hazardous_asteroid": false,
    "close_approach_data": [
        {
            "close_approach_date": "2016-01-30",
            "close_approach_date_full": "2016-Jan-30 19:05",
            "epoch_date_close_approach": 1454180700000,
            "relative_velocity": {
                "kilometers_per_second": "22.3715353327",
                "kilometers_per_hour": "80537.5271978046",
                "miles_per_hour": "50042.8873857692"
            },
            "miss_distance": {
                "astronomical": "0.3611747287",
                "lunar": "140.4969694643",
                "kilometers": "54030970.111347869",
                "miles": "33573288.0131398322"
            },
            "orbiting_body": "Earth"
        },
        {
            "close_approach_date": "2020-01-04",
            "close_approach_date_full": "2020-Jan-04 03:42",
            "epoch_date_close_approach": 1578109320000,
            "relative_velocity": {
                "kilometers_per_second": "10.932568999",
                "kilometers_per_hour": "39357.2483962708",
                "miles_per_hour": "24455.0635937828"
            },
            "miss_distance": {
                "astronomical": "0.0047527806",
                "lunar": "1.8488316534",
                "kilometers": "711005.854337322",
                "miles": "441798.5514141636"
            },
            "orbiting_body": "Moon"
        },
        {
            "close_approach_date": "2020-01-04",
            "close_approach_date_full": "2020-Jan-04 07:00",
            "epoch_date_close_approach": 1578121200000,
            "relative_velocity": {
                "kilometers_per_second": "11.8318436891",
                "kilometers_per_hour": "42594.6372807956",
                "miles_per_hour": "26466.6511481699"
            },
            "miss_distance": {
                "astronomical": "0.0066071918",
                "lunar": "2.5701976102",
                "kilometers": "988421.819961466",
                "miles": "614176.8391655908"
            },
            "orbiting_body": "Earth"
        }
    ],
    "orbital_data": {
        "orbit_id": "5",
        "orbit_determination_date": "2020-01-09 05:09:18",
        "first_observation_date": "2020-01-04",
        "last_observation_date": "2020-01-07",
        "data_arc_in_days": 3,
        "observations_used": 118,
        "orbit_uncertainty": "7",
        "minimum_orbit_intersection": ".00435068",
        "jupiter_tisserand_invariant": "3.138",
        "epoch_osculation": "2459000.5",
        "eccentricity": ".6397554533182322",
        "semi_major_axis": "2.512567608818236",
        "inclination": "2.290040046457189",
        "ascending_node_longitude": "108.5541517815546",
        "orbital_period": "1454.705436616124",
        "perihelion_distance": ".9051387792460188",
        "perihelion_argument": "316.3261981926676",
        "aphelion_distance": "4.119996438390454",
        "perihelion_time": "2458825.319734955252",
        "mean_anomaly": "43.35234737474286",
        "mean_motion": ".2474727810445373",
        "equinox": "J2000",
        "orbit_class": {
            "orbit_class_type": "APO",
            "orbit_class_description": "Near-Earth asteroid orbits which cross the Earth’s orbit similar to that of 1862 Apollo",
            "orbit_class_range": "a (semi-major axis) > 1.0 AU; q (perihelion) < 1.017 AU"
        }
    },
    "is_sentry_object": false
}